NORAD_CAT_ID,OBJECT_NAME,OBJECT_TYPE,EPOCH,MEAN_MOTION,ECCENTRICITY,INCLINATION,RA_OF_ASC_NODE,ARG_OF_PERICENTER,MEAN_ANOMALY,BSTAR,MEAN_MOTION_DOT,MEAN_MOTION_DDOT,TLE_LINE0,TLE_LINE1,TLE_LINE2,SEMIMAJOR_AXIS,PERIOD,APOGEE,PERIGEE,DECAYED
55772.0,STARLINK-5835,PAYLOAD,2023-07-09 06:00:00,15.05028005,0.0003048,69.9992,161.3273,270.4628,40.6525,-0.066745,-0.00880929,0.0,0 STARLINK-5835,1 55772U 23028AH  23190.25001157 -.00880929  00000-0 -66745-1 0  9994,2 55772  69.9992 161.3273 0003048 270.4628  40.6525 15.05028005 20571,6929.557,95.679,553.534,549.31,0.0
55772.0,STARLINK-5835,PAYLOAD,2023-07-09 22:00:00,15.0377399,0.0003168,69.9992,159.6305,264.7758,55.8323,-0.075272,-0.00965627,0.0,0 STARLINK-5835,1 55772U 23028AH  23190.91667824 -.00965627  00000-0 -75272-1 0  9990,2 55772  69.9992 159.6305 0003168 264.7758  55.8323 15.03773990 20673,6933.409,95.759,557.47,553.077,0.0
55772.0,STARLINK-5835,PAYLOAD,2023-07-10 22:00:00,15.01820739,0.0003158,69.999,157.0918,265.2539,63.7544,-0.079888,-0.00972467,0.0,0 STARLINK-5835,1 55772U 23028AH  23191.91667824 -.00972467  00000-0 -79888-1 0  9998,2 55772  69.9990 157.0918 0003158 265.2539  63.7544 15.01820739 20827,6939.419,95.884,563.475,559.093,0.0
55772.0,STARLINK-5835,PAYLOAD,2023-07-11 14:00:01,15.00481177,0.0003046,69.9986,155.4035,269.3819,61.3323,-0.079248,-0.00933823,0.0,0 STARLINK-5835,1 55772U 23028AH  23192.58334491 -.00933823  00000-0 -79248-1 0  9996,2 55772  69.9986 155.4035 0003046 269.3819  61.3323 15.00481177 20924,6943.549,95.969,567.529,563.298,0.0
55772.0,STARLINK-5835,PAYLOAD,2023-07-11 22:00:00,14.99730199,0.0003227,69.9988,154.5608,266.3107,64.0819,-0.049203,-0.00574344,0.0,0 STARLINK-5835,1 55772U 23028AH  23192.91667824 -.00574344  00000-0 -49203-1 0  9999,2 55772  69.9988 154.5608 0003227 266.3107  64.0819 14.99730199 20973,6945.866,96.017,569.973,565.49,0.0
55772.0,STARLINK-5835,PAYLOAD,2023-07-12 06:00:00,14.99274675,0.0003216,69.9989,153.7186,272.8297,56.4736,0.0025913,0.00031736,0.0,0 STARLINK-5835,1 55772U 23028AH  23193.25001157  .00031736  00000-0  25913-2 0  9992,2 55772  69.9989 153.7186 0003216 272.8297  56.4736 14.99274675 21028,6947.273,96.046,571.372,566.904,0.0
55772.0,STARLINK-5835,PAYLOAD,2023-07-12 22:00:00,14.99303609,0.0003145,69.9996,152.0354,266.4701,60.0895,8.1172e-05,9e-06,0.0,0 STARLINK-5835,1 55772U 23028AH  23193.91667824  .00000900  00000-0  81172-4 0  9994,2 55772  69.9996 152.0354 0003145 266.4701  60.0895 14.99303609 21123,6947.184,96.045,571.234,566.864,0.0
55772.0,STARLINK-5835,PAYLOAD,2023-07-14 04:00:01,14.99317996,0.0003156,69.9999,148.8788,271.1452,320.4239,-0.0029297,-0.00035776,0.0,0 STARLINK-5835,1 55772U 23028AH  23195.16668981 -.00035776  00000-0 -29297-2 0  9997,2 55772  69.9999 148.8788 0003156 271.1452 320.4239 14.99317996 21307,6947.139,96.044,571.197,566.812,0.0
55772.0,STARLINK-5835,PAYLOAD,2023-07-14 22:00:00,14.99319753,0.0003233,70.0002,146.985,265.3965,53.0649,-8.5422e-06,-1.98e-06,0.0,0 STARLINK-5835,1 55772U 23028AH  23195.91667824 -.00000198  00000-0 -85422-5 0  9990,2 55772  70.0002 146.9850 0003233 265.3965  53.0649 14.99319753 21424,6947.134,96.044,571.245,566.753,0.0
55772.0,STARLINK-5835,PAYLOAD,2023-07-15 01:23:16,14.9929846,0.0003018,69.9992,146.6292,268.5195,91.5619,4.1066e-05,4.09e-06,0.0,0 STARLINK-5835,1 55772U 23028AH  23196.05782478  .00000409  00000-0  41066-4 0  9997,2 55772  69.9992 146.6292 0003018 268.5195  91.5619 14.99298460 21444,6947.2,96.045,571.161,566.968,0.0
55772.0,STARLINK-5835,PAYLOAD,2023-07-16 01:24:53,14.98908809,0.0002982,69.9992,144.1033,274.0075,86.0744,-0.0042148,-0.00050776,0.0,0 STARLINK-5835,1 55772U 23028AH  23197.05895748 -.00050776  00000-0 -42148-2 0  9997,2 55772  69.9992 144.1033 0002982 274.0075  86.0744 14.98908809 21596,6948.404,96.07,572.341,568.197,0.0
55772.0,STARLINK-5835,PAYLOAD,2023-07-16 06:13:19,14.98796227,0.0003096,69.9992,143.5985,256.9733,103.1081,-0.0052311,-0.00062708,0.0,0 STARLINK-5835,1 55772U 23028AH  23197.25925213 -.00062708  00000-0 -52311-2 0  9991,2 55772  69.9992 143.5985 0003096 256.9733 103.1081 14.98796227 21620,6948.751,96.077,572.768,568.465,0.0
55772.0,STARLINK-5835,PAYLOAD,2023-07-16 19:02:13,14.98718757,0.0003214,69.9994,142.2517,267.1368,92.9423,-0.005254,-0.00062855,0.0,0 STARLINK-5835,1 55772U 23028AH  23197.79321096 -.00062855  00000-0 -52540-2 0  9996,2 55772  69.9994 142.2517 0003214 267.1368  92.9423 14.98718757 21705,6948.991,96.082,573.089,568.623,0.0
55772.0,STARLINK-5835,PAYLOAD,2023-07-17 23:52:21,14.98466932,0.0003584,69.999,139.2211,267.5628,92.5121,-0.0020495,-0.0002455,0.0,0 STARLINK-5835,1 55772U 23028AH  23198.99469385 -.00024550  00000-0 -20495-2 0  9997,2 55772  69.9990 139.2211 0003584 267.5628  92.5121 14.98466932 21886,6949.769,96.098,574.125,569.144,0.0
55772.0,STARLINK-5835,PAYLOAD,2023-07-18 12:00:00,14.98328594,0.0003362,70.001,137.947,271.5151,293.4472,-0.0027985,-0.00033326,0.0,0 STARLINK-5835,1 55772U 23028AH  23199.50001157 -.00033326  00000-0 -27985-2 0  9996,2 55772  70.0010 137.9470 0003362 271.5151 293.4472 14.98328594 21954,6950.197,96.107,574.399,569.726,0.0
55772.0,STARLINK-5835,PAYLOAD,2023-07-18 22:00:00,14.98348819,0.0003397,70.0014,136.8967,269.1312,22.6584,-0.0022917,-0.00027345,0.0,0 STARLINK-5835,1 55772U 23028AH  23199.91667824 -.00027345  00000-0 -22917-2 0  9994,2 55772  70.0014 136.8967 0003397 269.1312  22.6584 14.98348819 22013,6950.135,96.106,574.361,569.639,0.0
55772.0,STARLINK-5835,PAYLOAD,2023-07-19 22:00:00,14.98348298,0.0003327,70.0014,134.3755,269.6842,14.5283,-0.0021907,-0.00026148,0.0,0 STARLINK-5835,1 55772U 23028AH  23200.91667824 -.00026148  00000-0 -21907-2 0  9995,2 55772  70.0014 134.3755 0003327 269.6842  14.5283 14.98348298 22160,6950.136,96.106,574.314,569.689,0.0
55772.0,STARLINK-5835,PAYLOAD,2023-07-21 19:12:02,14.98324893,0.0002833,70.0007,129.6292,255.0613,105.0232,2.2577e-05,1.76e-06,0.0,0 STARLINK-5835,1 55772U 23028AH  23202.80002733  .00000176  00000-0  22577-4 0  9994,2 55772  70.0007 129.6292 0002833 255.0613 105.0232 14.98324893 22458,6950.209,96.107,574.043,570.105,0.0
55772.0,STARLINK-5835,PAYLOAD,2023-07-24 04:52:53,14.98322113,0.0002864,69.9997,123.5681,268.0868,91.9963,-4.7542e-05,-6.6e-06,0.0,0 STARLINK-5835,1 55772U 23028AH  23205.20339265 -.00000660  00000-0 -47542-4 0  9993,2 55772  69.9997 123.5681 0002864 268.0868  91.9963 14.98322113 22815,6950.217,96.108,574.073,570.092,0.0
55772.0,STARLINK-5835,PAYLOAD,2023-07-24 22:30:21,14.98327657,0.0002427,70.0016,121.7158,273.0615,87.0266,0.00017259,1.967e-05,0.0,0 STARLINK-5835,1 55772U 23028AH  23205.93774349  .00001967  00000-0  17259-3 0  9999,2 55772  70.0016 121.7158 0002427 273.0615  87.0266 14.98327657 22922,6950.2,96.107,573.752,570.378,0.0
55772.0,STARLINK-5835,PAYLOAD,2023-07-26 01:44:38,14.98332534,0.0003006,69.9992,118.8544,264.4484,95.6332,7.6161e-06,-2e-08,0.0,0 STARLINK-5835,1 55772U 23028AH  23207.07266311 -.00000002  00000-0  76161-5 0  9990,2 55772  69.9992 118.8544 0003006 264.4484  95.6332 14.98332534 23098,6950.185,96.107,574.139,569.961,0.0
55772.0,STARLINK-5835,PAYLOAD,2023-07-26 17:45:58,14.98333321,0.0002935,69.9995,117.1721,259.7439,100.3389,1.1234e-05,4.1e-07,0.0,0 STARLINK-5835,1 55772U 23028AH  23207.74026060  .00000041  00000-0  11234-4 0  9990,2 55772  69.9995 117.1721 0002935 259.7439 100.3389 14.98333321 23199,6950.183,96.107,574.087,570.008,0.0
55772.0,STARLINK-5835,PAYLOAD,2023-07-27 00:10:30,14.98337232,0.0002877,69.9995,116.4977,266.2471,93.8359,4.6346e-05,4.6e-06,0.0,0 STARLINK-5835,1 55772U 23028AH  23208.00729672  .00000460  00000-0  46346-4 0  9996,2 55772  69.9995 116.4977 0002877 266.2471  93.8359 14.98337232 23231,6950.171,96.107,574.035,570.036,0.0
55772.0,STARLINK-5835,PAYLOAD,2023-07-27 04:58:54,14.98339196,0.0002846,69.9997,115.9928,267.1389,92.9444,6.3539e-05,6.65e-06,0.0,0 STARLINK-5835,1 55772U 23028AH  23208.20757402  .00000665  00000-0  63539-4 0  9990,2 55772  69.9997 115.9928 0002846 267.1389  92.9444 14.98339196 23266,6950.164,96.106,574.007,570.051,0.0
55772.0,STARLINK-5835,PAYLOAD,2023-07-27 19:24:08,14.98323558,0.0002381,69.9999,114.4808,259.8741,100.215,-7.6097e-05,-1.001e-05,0.0,0 STARLINK-5835,1 55772U 23028AH  23208.80842834 -.00001001  00000-0 -76097-4 0  9990,2 55772  69.9999 114.4808 0002381 259.8741 100.2150 14.98323558 23355,6950.213,96.107,573.733,570.423,0.0
55772.0,STARLINK-5835,PAYLOAD,2023-07-28 00:12:32,14.98322166,0.0002971,69.9997,113.9731,264.0897,95.9923,-7.7401e-05,-1.016e-05,0.0,0 STARLINK-5835,1 55772U 23028AH  23209.00870955 -.00001016  00000-0 -77401-4 0  9994,2 55772  69.9997 113.9731 0002971 264.0897  95.9923 14.98322166 23382,6950.217,96.108,574.147,570.017,0.0
55772.0,STARLINK-5835,PAYLOAD,2023-07-28 05:00:56,14.98323193,0.0002953,69.9997,113.4686,262.5213,97.561,-6.4358e-05,-8.61e-06,0.0,0 STARLINK-5835,1 55772U 23028AH  23209.20898928 -.00000861  00000-0 -64358-4 0  9990,2 55772  69.9997 113.4686 0002953 262.5213  97.5610 14.98323193 23417,6950.214,96.107,574.131,570.027,0.0
55772.0,STARLINK-5835,PAYLOAD,2023-07-29 01:50:40,14.98338423,0.0003173,69.9991,111.2796,265.4411,94.6386,2.4858e-05,2.04e-06,0.0,0 STARLINK-5835,1 55772U 23028AH  23210.07685661  .00000204  00000-0  24858-4 0  9995,2 55772  69.9991 111.2796 0003173 265.4411  94.6386 14.98338423 23540,6950.167,96.106,574.237,569.827,0.0
55772.0,STARLINK-5835,PAYLOAD,2023-07-29 19:28:09,14.98325834,0.0003082,69.9992,109.4281,262.9925,97.0884,7.0095e-05,7.43e-06,0.0,0 STARLINK-5835,1 55772U 23028AH  23210.81122265  .00000743  00000-0  70095-4 0  9995,2 55772  69.9992 109.4281 0003082 262.9925  97.0884 14.98325834 23654,6950.206,96.107,574.213,569.929,0.0
55772.0,STARLINK-5835,PAYLOAD,2023-07-31 01:54:42,14.9833613,0.000285,69.9995,106.2296,265.013,95.0704,-4.6022e-05,-6.42e-06,0.0,0 STARLINK-5835,1 55772U 23028AH  23212.07965947 -.00000642  00000-0 -46022-4 0  9990,2 55772  69.9995 106.2296 0002850 265.0130  95.0704 14.98336130 23843,6950.174,96.107,574.02,570.058,0.0
